start=new Date('2022-10-27T00:00:00.000Z').valueOf();
sats=[{"MEAN_ANOMALY":"124.4467","PERIAPSIS":"299.248","MEAN_MOTION":"15.86791373","MEAN_ELEMENT_THEORY":"SGP4","TLE_LINE2":"2 54072  53.2176 116.9457 0017997  53.6476 124.4467 15.86791373  1303","DECAY_DATE":null,"APOAPSIS":"323.326","ARG_OF_PERICENTER":"53.6476","SEMIMAJOR_AXIS":"6689.422","CLASSIFICATION_TYPE":"U","SITE":"AFETR","LAUNCH_DATE":"2022-10-20","REV_AT_EPOCH":"130","TIME_SYSTEM":"UTC","RA_OF_ASC_NODE":"116.9457","RCS_SIZE":null,"OBJECT_TYPE":"PAYLOAD","TLE_LINE1":"1 54072U 22136X   22299.91667824 -.01336743  49378-3 -50572-2 0  9993","ECCENTRICITY":"0.00179970","MEAN_MOTION_DOT":"-0.01336743","GP_ID":"216268082","EPHEMERIS_TYPE":"0","MEAN_MOTION_DDOT":"0.0004937800000","NORAD_CAT_ID":"54072","OBJECT_NAME":"STARLINK-5144","EPOCH":"2022-10-26T22:00:00.999936","CENTER_NAME":"EARTH","BSTAR":"-0.00505720000000","REF_FRAME":"TEME","PERIOD":"90.749","OBJECT_ID":"2022-136X","INCLINATION":"53.2176","FILE":"3635100","COUNTRY_CODE":"US","ELEMENT_SET_NO":"999"},{"APOAPSIS":"323.559","DECAY_DATE":null,"MEAN_MOTION":"15.86873551","MEAN_ELEMENT_THEORY":"SGP4","TLE_LINE2":"2 54073  53.2176 116.9433 0018691  54.2329 125.2982 15.86873551  1304","MEAN_ANOMALY":"125.2982","PERIAPSIS":"298.554","TIME_SYSTEM":"UTC","RCS_SIZE":null,"RA_OF_ASC_NODE":"116.9433","OBJECT_TYPE":"PAYLOAD","LAUNCH_DATE":"2022-10-20","REV_AT_EPOCH":"130","CLASSIFICATION_TYPE":"U","SITE":"AFETR","ARG_OF_PERICENTER":"54.2329","SEMIMAJOR_AXIS":"6689.191","CENTER_NAME":"EARTH","REF_FRAME":"TEME","BSTAR":"-0.00503390000000","PERIOD":"90.744","INCLINATION":"53.2176","OBJECT_ID":"2022-136Y","NORAD_CAT_ID":"54073","OBJECT_NAME":"STARLINK-5146","EPOCH":"2022-10-26T22:00:00.999936","MEAN_MOTION_DOT":"-0.01337422","GP_ID":"216267906","EPHEMERIS_TYPE":"0","MEAN_MOTION_DDOT":"0.0004946100000","TLE_LINE1":"1 54073U 22136Y   22299.91667824 -.01337422  49461-3 -50339-2 0  9993","ECCENTRICITY":"0.00186910","ELEMENT_SET_NO":"999","FILE":"3635100","COUNTRY_CODE":"US"},{"RCS_SIZE":null,"OBJECT_TYPE":"PAYLOAD","RA_OF_ASC_NODE":"116.9440","TIME_SYSTEM":"UTC","REV_AT_EPOCH":"130","LAUNCH_DATE":"2022-10-20","SITE":"AFETR","CLASSIFICATION_TYPE":"U","SEMIMAJOR_AXIS":"6689.284","ARG_OF_PERICENTER":"53.7184","DECAY_DATE":null,"APOAPSIS":"323.100","TLE_LINE2":"2 54074  53.2176 116.9440 0017866  53.7184 125.2421 15.86840631  1300","MEAN_ELEMENT_THEORY":"SGP4","MEAN_MOTION":"15.86840631","PERIAPSIS":"299.198","MEAN_ANOMALY":"125.2421","ELEMENT_SET_NO":"999","COUNTRY_CODE":"US","FILE":"3635100","OBJECT_ID":"2022-136Z","PERIOD":"90.746","INCLINATION":"53.2176","BSTAR":"-0.00504830000000","REF_FRAME":"TEME","CENTER_NAME":"EARTH","OBJECT_NAME":"STARLINK-5192","EPOCH":"2022-10-26T22:00:00.999936","NORAD_CAT_ID":"54074","MEAN_MOTION_DDOT":"0.0004944200000","GP_ID":"216268534","EPHEMERIS_TYPE":"0","MEAN_MOTION_DOT":"-0.01337362","ECCENTRICITY":"0.00178660","TLE_LINE1":"1 54074U 22136Z   22299.91667824 -.01337362  49442-3 -50483-2 0  9996"},{"CENTER_NAME":"EARTH","PERIOD":"90.743","OBJECT_ID":"2022-136AA","INCLINATION":"53.2176","REF_FRAME":"TEME","BSTAR":"-0.00503520000000","NORAD_CAT_ID":"54075","EPOCH":"2022-10-26T22:00:00.999936","OBJECT_NAME":"STARLINK-5212","GP_ID":"216267731","EPHEMERIS_TYPE":"0","MEAN_MOTION_DDOT":"0.0004949600000","MEAN_MOTION_DOT":"-0.01337823","TLE_LINE1":"1 54075U 22136AA  22299.91667824 -.01337823  49496-3 -50352-2 0  9993","ECCENTRICITY":"0.00181500","ELEMENT_SET_NO":"999","COUNTRY_CODE":"US","FILE":"3635100","APOAPSIS":"323.147","DECAY_DATE":null,"MEAN_MOTION":"15.86891600","TLE_LINE2":"2 54075  53.2176 116.9429 0018150  53.9762 125.8131 15.86891600  1305","MEAN_ELEMENT_THEORY":"SGP4","MEAN_ANOMALY":"125.8131","PERIAPSIS":"298.865","TIME_SYSTEM":"UTC","RCS_SIZE":null,"OBJECT_TYPE":"PAYLOAD","RA_OF_ASC_NODE":"116.9429","REV_AT_EPOCH":"130","LAUNCH_DATE":"2022-10-20","CLASSIFICATION_TYPE":"U","SITE":"AFETR","SEMIMAJOR_AXIS":"6689.141","ARG_OF_PERICENTER":"53.9762"},{"SITE":"AFETR","CLASSIFICATION_TYPE":"U","ARG_OF_PERICENTER":"53.6133","SEMIMAJOR_AXIS":"6689.240","RCS_SIZE":null,"OBJECT_TYPE":"PAYLOAD","RA_OF_ASC_NODE":"116.9434","TIME_SYSTEM":"UTC","LAUNCH_DATE":"2022-10-20","REV_AT_EPOCH":"130","PERIAPSIS":"299.037","MEAN_ANOMALY":"125.6524","APOAPSIS":"323.173","DECAY_DATE":null,"MEAN_ELEMENT_THEORY":"SGP4","TLE_LINE2":"2 54076  53.2176 116.9434 0018041  53.6133 125.6524 15.86856148  1302","MEAN_MOTION":"15.86856148","FILE":"3635100","COUNTRY_CODE":"US","ELEMENT_SET_NO":"999","MEAN_MOTION_DOT":"-0.01337625","MEAN_MOTION_DDOT":"0.0004946700000","GP_ID":"216268366","EPHEMERIS_TYPE":"0","ECCENTRICITY":"0.00180410","TLE_LINE1":"1 54076U 22136AB  22299.91667824 -.01337625  49467-3 -50441-2 0  9991","REF_FRAME":"TEME","BSTAR":"-0.00504410000000","INCLINATION":"53.2176","PERIOD":"90.745","OBJECT_ID":"2022-136AB","CENTER_NAME":"EARTH","EPOCH":"2022-10-26T22:00:00.999936","OBJECT_NAME":"STARLINK-5201","NORAD_CAT_ID":"54076"},{"ELEMENT_SET_NO":"999","FILE":"3635100","COUNTRY_CODE":"US","REF_FRAME":"TEME","BSTAR":"-0.00501040000000","INCLINATION":"53.2176","PERIOD":"90.741","OBJECT_ID":"2022-136AC","CENTER_NAME":"EARTH","OBJECT_NAME":"STARLINK-5171","EPOCH":"2022-10-26T22:00:00.999936","NORAD_CAT_ID":"54077","MEAN_MOTION_DOT":"-0.01334941","EPHEMERIS_TYPE":"0","GP_ID":"216267488","MEAN_MOTION_DDOT":"0.0004932300000","ECCENTRICITY":"0.00184400","TLE_LINE1":"1 54077U 22136AC  22299.91667824 -.01334941  49323-3 -50104-2 0  9997","RCS_SIZE":null,"RA_OF_ASC_NODE":"116.9411","OBJECT_TYPE":"PAYLOAD","TIME_SYSTEM":"UTC","LAUNCH_DATE":"2022-10-20","REV_AT_EPOCH":"130","SITE":"AFETR","CLASSIFICATION_TYPE":"U","ARG_OF_PERICENTER":"61.3004","SEMIMAJOR_AXIS":"6689.009","DECAY_DATE":null,"APOAPSIS":"323.209","MEAN_ELEMENT_THEORY":"SGP4","TLE_LINE2":"2 54077  53.2176 116.9411 0018440  61.3004 119.3652 15.86938318  1306","MEAN_MOTION":"15.86938318","PERIAPSIS":"298.540","MEAN_ANOMALY":"119.3652"},{"SEMIMAJOR_AXIS":"6689.056","ARG_OF_PERICENTER":"57.8261","CLASSIFICATION_TYPE":"U","SITE":"AFETR","REV_AT_EPOCH":"130","LAUNCH_DATE":"2022-10-20","TIME_SYSTEM":"UTC","RCS_SIZE":null,"OBJECT_TYPE":"PAYLOAD","RA_OF_ASC_NODE":"116.9414","MEAN_ANOMALY":"122.5745","PERIAPSIS":"298.736","MEAN_MOTION":"15.86921588","TLE_LINE2":"2 54078  53.2176 116.9414 0018217  57.8261 122.5745 15.86921588  1307","MEAN_ELEMENT_THEORY":"SGP4","APOAPSIS":"323.107","DECAY_DATE":null,"COUNTRY_CODE":"US","FILE":"3635100","ELEMENT_SET_NO":"999","TLE_LINE1":"1 54078U 22136AD  22299.91667824 -.01336446  49417-3 -50220-2 0  9993","ECCENTRICITY":"0.00182170","GP_ID":"216268251","MEAN_MOTION_DDOT":"0.0004941700000","EPHEMERIS_TYPE":"0","MEAN_MOTION_DOT":"-0.01336446","NORAD_CAT_ID":"54078","OBJECT_NAME":"STARLINK-5138","EPOCH":"2022-10-26T22:00:00.999936","CENTER_NAME":"EARTH","OBJECT_ID":"2022-136AD","PERIOD":"90.742","INCLINATION":"53.2176","REF_FRAME":"TEME","BSTAR":"-0.00502200000000"},{"ARG_OF_PERICENTER":"54.6890","SEMIMAJOR_AXIS":"6688.957","CLASSIFICATION_TYPE":"U","SITE":"AFETR","LAUNCH_DATE":"2022-10-20","REV_AT_EPOCH":"130","TIME_SYSTEM":"UTC","RCS_SIZE":null,"RA_OF_ASC_NODE":"116.9407","OBJECT_TYPE":"PAYLOAD","MEAN_ANOMALY":"126.2443","PERIAPSIS":"298.120","MEAN_MOTION":"15.86957110","MEAN_ELEMENT_THEORY":"SGP4","TLE_LINE2":"2 54079  53.2176 116.9407 0018989  54.6890 126.2443 15.86957110  1305","APOAPSIS":"323.523","DECAY_DATE":null,"FILE":"3635100","COUNTRY_CODE":"US","ELEMENT_SET_NO":"999","TLE_LINE1":"1 54079U 22136AE  22299.91667824 -.01338191  49550-3 -50137-2 0  9998","ECCENTRICITY":"0.00189890","MEAN_MOTION_DOT":"-0.01338191","MEAN_MOTION_DDOT":"0.0004955000000","GP_ID":"216267313","EPHEMERIS_TYPE":"0","NORAD_CAT_ID":"54079","EPOCH":"2022-10-26T22:00:00.999936","OBJECT_NAME":"STARLINK-5175","CENTER_NAME":"EARTH","BSTAR":"-0.00501370000000","REF_FRAME":"TEME","OBJECT_ID":"2022-136AE","PERIOD":"90.740","INCLINATION":"53.2176"},{"PERIAPSIS":"298.236","MEAN_ANOMALY":"125.7307","TLE_LINE2":"2 54080  53.2176 116.9419 0019030  54.3830 125.7307 15.86905880  1309","MEAN_ELEMENT_THEORY":"SGP4","MEAN_MOTION":"15.86905880","DECAY_DATE":null,"APOAPSIS":"323.695","SEMIMAJOR_AXIS":"6689.101","ARG_OF_PERICENTER":"54.3830","SITE":"AFETR","CLASSIFICATION_TYPE":"U","REV_AT_EPOCH":"130","LAUNCH_DATE":"2022-10-20","OBJECT_TYPE":"PAYLOAD","RCS_SIZE":null,"RA_OF_ASC_NODE":"116.9419","TIME_SYSTEM":"UTC","ECCENTRICITY":"0.00190300","TLE_LINE1":"1 54080U 22136AF  22299.91667824 -.01337725  49496-3 -50243-2 0  9999","MEAN_MOTION_DDOT":"0.0004949600000","GP_ID":"216268083","EPHEMERIS_TYPE":"0","MEAN_MOTION_DOT":"-0.01337725","EPOCH":"2022-10-26T22:00:00.999936","OBJECT_NAME":"STARLINK-5160","NORAD_CAT_ID":"54080","INCLINATION":"53.2176","PERIOD":"90.743","OBJECT_ID":"2022-136AF","REF_FRAME":"TEME","BSTAR":"-0.00502430000000","CENTER_NAME":"EARTH","COUNTRY_CODE":"US","FILE":"3635100","ELEMENT_SET_NO":"999"},{"DECAY_DATE":null,"APOAPSIS":"323.659","MEAN_ELEMENT_THEORY":"SGP4","TLE_LINE2":"2 54081  53.2176 116.9396 0019329  54.4798 127.0265 15.86989837  1301","MEAN_MOTION":"15.86989837","PERIAPSIS":"297.801","MEAN_ANOMALY":"127.0265","RA_OF_ASC_NODE":"116.9396","RCS_SIZE":null,"OBJECT_TYPE":"PAYLOAD","TIME_SYSTEM":"UTC","LAUNCH_DATE":"2022-10-20","REV_AT_EPOCH":"130","SITE":"AFETR","CLASSIFICATION_TYPE":"U","ARG_OF_PERICENTER":"54.4798","SEMIMAJOR_AXIS":"6688.865","REF_FRAME":"TEME","BSTAR":"-0.00500460000000","PERIOD":"90.738","INCLINATION":"53.2176","OBJECT_ID":"2022-136AG","CENTER_NAME":"EARTH","EPOCH":"2022-10-26T22:00:00.999936","OBJECT_NAME":"STARLINK-5165","NORAD_CAT_ID":"54081","MEAN_MOTION_DOT":"-0.01338660","MEAN_MOTION_DDOT":"0.0004959700000","GP_ID":"216267907","EPHEMERIS_TYPE":"0","ECCENTRICITY":"0.00193290","TLE_LINE1":"1 54081U 22136AG  22299.91667824 -.01338660  49597-3 -50046-2 0  9992","ELEMENT_SET_NO":"999","FILE":"3635100","COUNTRY_CODE":"US"}];
